[{"spaceTrack":{"CCSDS_OMM_VERS":"2.0","COMMENT":"GENERATED VIA SPACE-TRACK.ORG API","CREATION_DATE":"2021-05-12T04:44:40","ORIGINATOR":"18 SPCS","OBJECT_NAME":"STARLINK-1451","OBJECT_ID":"2020-035M","CENTER_NAME":"EARTH","REF_FRAME":"TEME","TIME_SYSTEM":"UTC","MEAN_ELEMENT_THEORY":"SGP4","EPOCH":"2021-05-11T20:01:37.354368","MEAN_MOTION":15.06399784,"ECCENTRICITY":0.0001352,"INCLINATION":53.058,"RA_OF_ASC_NODE":60.3876,"ARG_OF_PERICENTER":67.9222,"MEAN_ANOMALY":292.191,"EPHEMERIS_TYPE":0,"CLASSIFICATION_TYPE":"U","NORAD_CAT_ID":45668,"ELEMENT_SET_NO":999,"REV_AT_EPOCH":5303,"BSTAR":-0.000051977,"MEAN_MOTION_DOT":-0.00001056,"MEAN_MOTION_DDOT":0,"SEMIMAJOR_AXIS":6925.349,"PERIOD":95.592,"APOAPSIS":548.151,"PERIAPSIS":546.278,"OBJECT_TYPE":"PAYLOAD","RCS_SIZE":"LARGE","COUNTRY_CODE":"US","LAUNCH_DATE":"2020-06-04","SITE":"AFETR","DECAY_DATE":null,"DECAYED":0,"FILE":3035157,"GP_ID":177103039,"TLE_LINE0":"0 STARLINK-1451","TLE_LINE1":"1 45668U 20035M   21131.83446012 -.00001056  00000-0 -51977-4 0  9992","TLE_LINE2":"2 45668  53.0580  60.3876 0001352  67.9222 292.1910 15.06399784 53038"},"version":"v1.0","launch":"5eb87d45ffd86e000604b387","longitude":-42.49401808692352,"latitude":46.156781038602965,"height_km":551.2410231549211,"velocity_kms":7.592426328839797,"id":"5eed7715096e590006985709"},{"spaceTrack":{"CCSDS_OMM_VERS":"2.0","COMMENT":"GENERATED VIA SPACE-TRACK.ORG API","CREATION_DATE":"2021-05-12T04:44:40","ORIGINATOR":"18 SPCS","OBJECT_NAME":"STARLINK-1145","OBJECT_ID":"2020-006Y","CENTER_NAME":"EARTH","REF_FRAME":"TEME","TIME_SYSTEM":"UTC","MEAN_ELEMENT_THEORY":"SGP4","EPOCH":"2021-05-11T18:31:22.196352","MEAN_MOTION":15.06404882,"ECCENTRICITY":0.0001352,"INCLINATION":53.0568,"RA_OF_ASC_NODE":260.6604,"ARG_OF_PERICENTER":121.9072,"MEAN_ANOMALY":238.2049,"EPHEMERIS_TYPE":0,"CLASSIFICATION_TYPE":"U","NORAD_CAT_ID":45066,"ELEMENT_SET_NO":999,"REV_AT_EPOCH":7102,"BSTAR":0.000052136,"MEAN_MOTION_DOT":0.00000495,"MEAN_MOTION_DDOT":0,"SEMIMAJOR_AXIS":6925.334,"PERIOD":95.592,"APOAPSIS":548.135,"PERIAPSIS":546.262,"OBJECT_TYPE":"PAYLOAD","RCS_SIZE":"LARGE","COUNTRY_CODE":"US","LAUNCH_DATE":"2020-01-29","SITE":"AFETR","DECAY_DATE":null,"DECAYED":0,"FILE":3035157,"GP_ID":177102972,"TLE_LINE0":"0 STARLINK-1145","TLE_LINE1":"1 45066U 20006Y   21131.77178468  .00000495  00000-0  52136-4 0  9994","TLE_LINE2":"2 45066  53.0568 260.6604 0001352 121.9072 238.2049 15.06404882 71023"},"version":"v1.0","launch":"5eb87d3fffd86e000604b382","longitude":135.67803835528673,"latitude":33.145950485799474,"height_km":549.2942416191918,"velocity_kms":7.591677460428649,"id":"5eed7715096e59000698570a"},{"spaceTrack":{"CCSDS_OMM_VERS":"2.0","COMMENT":"GENERATED VIA SPACE-TRACK.ORG API","CREATION_DATE":"2021-05-12T07:36:10","ORIGINATOR":"18 SPCS","OBJECT_NAME":"STARLINK-1243","OBJECT_ID":"2020-012BJ","CENTER_NAME":"EARTH","REF_FRAME":"TEME","TIME_SYSTEM":"UTC","MEAN_ELEMENT_THEORY":"SGP4","EPOCH":"2021-05-12T03:40:43.880160","MEAN_MOTION":15.06394675,"ECCENTRICITY":0.0002139,"INCLINATION":53.0567,"RA_OF_ASC_NODE":38.9597,"ARG_OF_PERICENTER":73.2713,"MEAN_ANOMALY":286.8511,"EPHEMERIS_TYPE":0,"CLASSIFICATION_TYPE":"U","NORAD_CAT_ID":45234,"ELEMENT_SET_NO":999,"REV_AT_EPOCH":6827,"BSTAR":-0.000060292,"MEAN_MOTION_DOT":-0.0000118,"MEAN_MOTION_DDOT":0,"SEMIMAJOR_AXIS":6925.365,"PERIOD":95.592,"APOAPSIS":548.711,"PERIAPSIS":545.749,"OBJECT_TYPE":"PAYLOAD","RCS_SIZE":"LARGE","COUNTRY_CODE":"US","LAUNCH_DATE":"2020-02-17","SITE":"AFETR","DECAY_DATE":null,"DECAYED":0,"FILE":3035300,"GP_ID":177109691,"TLE_LINE0":"0 STARLINK-1243","TLE_LINE1":"1 45234U 20012BJ  21132.15328565 -.00001180  00000-0 -60292-4 0  9992","TLE_LINE2":"2 45234  53.0567  38.9597 0002139  73.2713 286.8511 15.06394675 68275"},"version":"v1.0","launch":"5eb87d41ffd86e000604b383","longitude":34.71918226373353,"latitude":35.05672760549582,"height_km":549.0605562278824,"velocity_kms":7.592356683371242,"id":"5eed7715096e59000698570b"},{"spaceTrack":{"CCSDS_OMM_VERS":"2.0","COMMENT":"GENERATED VIA SPACE-TRACK.ORG API","CREATION_DATE":"2021-05-12T07:36:10","ORIGINATOR":"18 SPCS","OBJECT_NAME":"STARLINK-1230","OBJECT_ID":"2020-012M","CENTER_NAME":"EARTH","REF_FRAME":"TEME","TIME_SYSTEM":"UTC","MEAN_ELEMENT_THEORY":"SGP4","EPOCH":"2021-05-12T03:35:26.405088","MEAN_MOTION":15.06396986,"ECCENTRICITY":0.000175,"INCLINATION":53.0565,"RA_OF_ASC_NODE":38.9745,"ARG_OF_PERICENTER":52.9901,"MEAN_ANOMALY":307.1248,"EPHEMERIS_TYPE":0,"CLASSIFICATION_TYPE":"U","NORAD_CAT_ID":45189,"ELEMENT_SET_NO":999,"REV_AT_EPOCH":6824,"BSTAR":0.00007318,"MEAN_MOTION_DOT":0.00000808,"MEAN_MOTION_DDOT":0,"SEMIMAJOR_AXIS":6925.358,"PERIOD":95.592,"APOAPSIS":548.435,"PERIAPSIS":546.011,"OBJECT_TYPE":"PAYLOAD","RCS_SIZE":"LARGE","COUNTRY_CODE":"US","LAUNCH_DATE":"2020-02-17","SITE":"AFETR","DECAY_DATE":null,"DECAYED":0,"FILE":3035303,"GP_ID":177109684,"TLE_LINE0":"0 STARLINK-1230","TLE_LINE1":"1 45189U 20012M   21132.14961117  .00000808  00000-0  73180-4 0  9990","TLE_LINE2":"2 45189  53.0565  38.9745 0001750  52.9901 307.1248 15.06396986 68246"},"version":"v1.0","launch":"5eb87d41ffd86e000604b383","longitude":49.40328588609161,"latitude":21.41072916759542,"height_km":547.966883187345,"velocity_kms":7.5909996696937805,"id":"5eed7715096e59000698570c"},{"spaceTrack":{"CCSDS_OMM_VERS":"2.0","COMMENT":"GENERATED VIA SPACE-TRACK.ORG API","CREATION_DATE":"2021-05-12T07:36:10","ORIGINATOR":"18 SPCS","OBJECT_NAME":"STARLINK-1456","OBJECT_ID":"2020-035S","CENTER_NAME":"EARTH","REF_FRAME":"TEME","TIME_SYSTEM":"UTC","MEAN_ELEMENT_THEORY":"SGP4","EPOCH":"2021-05-12T03:54:00.552096","MEAN_MOTION":15.06394975,"ECCENTRICITY":0.0001488,"INCLINATION":53.0584,"RA_OF_ASC_NODE":58.8999,"ARG_OF_PERICENTER":92.6809,"MEAN_ANOMALY":267.435,"EPHEMERIS_TYPE":0,"CLASSIFICATION_TYPE":"U","NORAD_CAT_ID":45673,"ELEMENT_SET_NO":999,"REV_AT_EPOCH":5267,"BSTAR":-0.000040406,"MEAN_MOTION_DOT":-0.00000883,"MEAN_MOTION_DDOT":0,"SEMIMAJOR_AXIS":6925.364,"PERIOD":95.592,"APOAPSIS":548.259,"PERIAPSIS":546.198,"OBJECT_TYPE":"PAYLOAD","RCS_SIZE":"LARGE","COUNTRY_CODE":"US","LAUNCH_DATE":"2020-06-04","SITE":"AFETR","DECAY_DATE":null,"DECAYED":0,"FILE":3035305,"GP_ID":177109757,"TLE_LINE0":"0 STARLINK-1456","TLE_LINE1":"1 45673U 20035S   21132.16250639 -.00000883  00000-0 -40406-4 0  9995","TLE_LINE2":"2 45673  53.0584  58.8999 0001488  92.6809 267.4350 15.06394975 52671"},"version":"v1.0","launch":"5eb87d45ffd86e000604b387","longitude":-13.32047972605445,"latitude":52.81501706597379,"height_km":552.6924678682653,"velocity_kms":7.592329365217891,"id":"5eed7715096e59000698570d"},{"spaceTrack":{"CCSDS_OMM_VERS":"2.0","COMMENT":"GENERATED VIA SPACE-TRACK.ORG API","CREATION_DATE":"2021-05-12T06:36:10","ORIGINATOR":"18 SPCS","OBJECT_NAME":"STARLINK-1365","OBJECT_ID":"2020-025BM","CENTER_NAME":"EARTH","REF_FRAME":"TEME","TIME_SYSTEM":"UTC","MEAN_ELEMENT_THEORY":"SGP4","EPOCH":"2021-05-12T03:11:34.511712","MEAN_MOTION":15.06390032,"ECCENTRICITY":0.0001228,"INCLINATION":53.0567,"RA_OF_ASC_NODE":99.0474,"ARG_OF_PERICENTER":87.4012,"MEAN_ANOMALY":272.7118,"EPHEMERIS_TYPE":0,"CLASSIFICATION_TYPE":"U","NORAD_CAT_ID":45590,"ELEMENT_SET_NO":999,"REV_AT_EPOCH":5882,"BSTAR":0.000058111,"MEAN_MOTION_DOT":0.00000584,"MEAN_MOTION_DDOT":0,"SEMIMAJOR_AXIS":6925.379,"PERIOD":95.593,"APOAPSIS":548.095,"PERIAPSIS":546.394,"OBJECT_TYPE":"PAYLOAD","RCS_SIZE":"LARGE","COUNTRY_CODE":"US","LAUNCH_DATE":"2020-04-22","SITE":"AFETR","DECAY_DATE":null,"DECAYED":0,"FILE":3035199,"GP_ID":177107122,"TLE_LINE0":"0 STARLINK-1365","TLE_LINE1":"1 45590U 20025BM  21132.13303833  .00000584  00000-0  58111-4 0  9992","TLE_LINE2":"2 45590  53.0567  99.0474 0001228  87.4012 272.7118 15.06390032 58829"},"version":"v1.0","launch":"5eb87d44ffd86e000604b386","longitude":177.36426952960917,"latitude":-46.09509773722303,"height_km":563.6655246064793,"velocity_kms":7.578812030804421,"id":"5eed7715096e59000698570e"},{"spaceTrack":{"CCSDS_OMM_VERS":"2.0","COMMENT":"GENERATED VIA SPACE-TRACK.ORG API","CREATION_DATE":"2021-05-12T04:44:40","ORIGINATOR":"18 SPCS","OBJECT_NAME":"STARLINK-1152","OBJECT_ID":"2020-006BE","CENTER_NAME":"EARTH","REF_FRAME":"TEME","TIME_SYSTEM":"UTC","MEAN_ELEMENT_THEORY":"SGP4","EPOCH":"2021-05-11T18:18:06.629472","MEAN_MOTION":15.06393875,"ECCENTRICITY":0.0001115,"INCLINATION":53.0567,"RA_OF_ASC_NODE":240.709,"ARG_OF_PERICENTER":96.0083,"MEAN_ANOMALY":264.1033,"EPHEMERIS_TYPE":0,"CLASSIFICATION_TYPE":"U","NORAD_CAT_ID":45096,"ELEMENT_SET_NO":999,"REV_AT_EPOCH":7130,"BSTAR":-0.000063795,"MEAN_MOTION_DOT":-0.00001231,"MEAN_MOTION_DDOT":0,"SEMIMAJOR_AXIS":6925.367,"PERIOD":95.593,"APOAPSIS":548.005,"PERIAPSIS":546.46,"OBJECT_TYPE":"PAYLOAD","RCS_SIZE":"LARGE","COUNTRY_CODE":"US","LAUNCH_DATE":"2020-01-29","SITE":"AFETR","DECAY_DATE":null,"DECAYED":0,"FILE":3035157,"GP_ID":177103477,"TLE_LINE0":"0 STARLINK-1152","TLE_LINE1":"1 45096U 20006BE  21131.76257673 -.00001231  00000-0 -63795-4 0  9996","TLE_LINE2":"2 45096  53.0567 240.7090 0001115  96.0083 264.1033 15.06393875 71305"},"version":"v1.0","launch":"5eb87d3fffd86e000604b382","longitude":-44.15308333308256,"latitude":-36.98267294189461,"height_km":559.636764775034,"velocity_kms":7.581184146182355,"id":"5eed7715096e59000698570f"}]